{"type": "FeatureCollection", "features": [{"type": "Feature", "properties": {"outage_id": "7-0", "title": "Area Outage", "customers_affected": 73, "n_outages_in_cluster_record": 1, "cause": "Pending Classification", "status": "", "etr": "ETR-EXP", "start_time": "", "region": "", "municipality": "", "cluster": false, "source_url": "https://kubra.io/cluster-data/231/e0192d42-e3c7-4d12-9872-137fb6304921/8d7627d3-561b-4f52-99d9-ee61dcc34c7c/public/cluster-1/0213132.json", "quadkey": "0213132", "utility": "Hydro One", "province": "Ontario", "feed": "kubra_stormcentre_live", "data_source_notes": "Unofficial public Hydro One Storm Centre (Kubra) live snapshot; not operational outage history."}, "geometry": {"type": "Polygon", "coordinates": [[[-94.86427, 49.64588], [-94.85286, 49.66478], [-94.85198, 49.66519], [-94.85075, 49.66544], [-94.82294, 49.66041], [-94.8401, 49.64613], [-94.86427, 49.64588]]]}}, {"type": "Feature", "properties": {"outage_id": "7-0", "title": "Area Outage", "customers_affected": 44, "n_outages_in_cluster_record": 1, "cause": "Currently Under Investigation", "status": "", "etr": "ETR-EXP", "start_time": "", "region": "", "municipality": "", "cluster": false, "source_url": "https://kubra.io/cluster-data/012/e0192d42-e3c7-4d12-9872-137fb6304921/8d7627d3-561b-4f52-99d9-ee61dcc34c7c/public/cluster-1/0302210.json", "quadkey": "0302210", "utility": "Hydro One", "province": "Ontario", "feed": "kubra_stormcentre_live", "data_source_notes": "Unofficial public Hydro One Storm Centre (Kubra) live snapshot; not operational outage history."}, "geometry": {"type": "Polygon", "coordinates": [[[-81.64579, 48.56452], [-81.64717, 48.56473], [-81.65004, 48.56606], [-81.65004, 48.56711], [-81.64828, 48.57029], [-81.64376, 48.57807], [-81.64326, 48.57868], [-81.6429, 48.57908], [-81.64035, 48.58185], [-81.6384, 48.58231], [-81.64579, 48.56452]]]}}, {"type": "Feature", "properties": {"outage_id": "7-0", "title": "Area Outage", "customers_affected": 32, "n_outages_in_cluster_record": 1, "cause": "Pending Classification", "status": "", "etr": "2026-10-08T23:30:00Z", "start_time": "", "region": "", "municipality": "", "cluster": false, "source_url": "https://kubra.io/cluster-data/212/e0192d42-e3c7-4d12-9872-137fb6304921/8d7627d3-561b-4f52-99d9-ee61dcc34c7c/public/cluster-1/0302212.json", "quadkey": "0302212", "utility": "Hydro One", "province": "Ontario", "feed": "kubra_stormcentre_live", "data_source_notes": "Unofficial public Hydro One Storm Centre (Kubra) live snapshot; not operational outage history."}, "geometry": {"type": "Polygon", "coordinates": [[[-82.11793, 45.59805], [-82.08889, 45.63757], [-82.09438, 45.62119], [-82.10604, 45.59888], [-82.11793, 45.59805]]]}}, {"type": "Feature", "properties": {"outage_id": "9-0", "title": "Area Outage", "customers_affected": 60, "n_outages_in_cluster_record": 1, "cause": "Pending Classification", "status": "", "etr": "2026-10-09T00:00:00Z", "start_time": "", "region": "", "municipality": "", "cluster": false, "source_url": "https://kubra.io/cluster-data/112/e0192d42-e3c7-4d12-9872-137fb6304921/8d7627d3-561b-4f52-99d9-ee61dcc34c7c/public/cluster-1/030223211.json", "quadkey": "030223211", "utility": "Hydro One", "province": "Ontario", "feed": "kubra_stormcentre_live", "data_source_notes": "Unofficial public Hydro One Storm Centre (Kubra) live snapshot; not operational outage history."}, "geometry": {"type": "Polygon", "coordinates": [[[-82.04332, 42.87802], [-82.07896, 42.87856], [-82.09154, 42.87969], [-82.09808, 42.88108], [-82.07866, 42.88913], [-82.013, 42.8799], [-82.00787, 42.87875], [-82.04332, 42.87802]]]}}, {"type": "Feature", "properties": {"outage_id": "12-0", "title": "Area Outage", "customers_affected": 19, "n_outages_in_cluster_record": 1, "cause": "Pending Classification", "status": "", "etr": "2026-10-09T00:00:00Z", "start_time": "", "region": "", "municipality": "", "cluster": false, "source_url": "https://kubra.io/cluster-data/301/e0192d42-e3c7-4d12-9872-137fb6304921/8d7627d3-561b-4f52-99d9-ee61dcc34c7c/public/cluster-1/030223213103.json", "quadkey": "030223213103", "utility": "Hydro One", "province": "Ontario", "feed": "kubra_stormcentre_live", "data_source_notes": "Unofficial public Hydro One Storm Centre (Kubra) live snapshot; not operational outage history."}, "geometry": {"type": "Point", "coordinates": [-81.76921, 42.44079]}}, {"type": "Feature", "properties": {"outage_id": "12-1", "title": "Area Outage", "customers_affected": 46, "n_outages_in_cluster_record": 1, "cause": "Pending Classification", "status": "", "etr": "2026-10-08T22:30:00Z", "start_time": "", "region": "", "municipality": "", "cluster": false, "source_url": "https://kubra.io/cluster-data/301/e0192d42-e3c7-4d12-9872-137fb6304921/8d7627d3-561b-4f52-99d9-ee61dcc34c7c/public/cluster-1/030223213103.json", "quadkey": "030223213103", "utility": "Hydro One", "province": "Ontario", "feed": "kubra_stormcentre_live", "data_source_notes": "Unofficial public Hydro One Storm Centre (Kubra) live snapshot; not operational outage history."}, "geometry": {"type": "Polygon", "coordinates": [[[-82.16098, 42.33929], [-82.07809, 42.51053], [-81.7611, 42.45181], [-81.75292, 42.44778], [-81.74699, 42.4271], [-82.16098, 42.33929]]]}}, {"type": "Feature", "properties": {"outage_id": "7-0", "title": "Area Outage", "customers_affected": 19, "n_outages_in_cluster_record": 1, "cause": "Pending Classification", "status": "", "etr": "2026-10-09T01:45:00Z", "start_time": "", "region": "", "municipality": "", "cluster": false, "source_url": "https://kubra.io/cluster-data/312/e0192d42-e3c7-4d12-9872-137fb6304921/8d7627d3-561b-4f52-99d9-ee61dcc34c7c/public/cluster-1/0302213.json", "quadkey": "0302213", "utility": "Hydro One", "province": "Ontario", "feed": "kubra_stormcentre_live", "data_source_notes": "Unofficial public Hydro One Storm Centre (Kubra) live snapshot; not operational outage history."}, "geometry": {"type": "Point", "coordinates": [-79.35565, 45.98994]}}, {"type": "Feature", "properties": {"outage_id": "7-1", "title": "Area Outage", "customers_affected": 19, "n_outages_in_cluster_record": 1, "cause": "Pending Classification", "status": "", "etr": "2026-10-09T02:00:00Z", "start_time": "", "region": "", "municipality": "", "cluster": false, "source_url": "https://kubra.io/cluster-data/312/e0192d42-e3c7-4d12-9872-137fb6304921/8d7627d3-561b-4f52-99d9-ee61dcc34c7c/public/cluster-1/0302213.json", "quadkey": "0302213", "utility": "Hydro One", "province": "Ontario", "feed": "kubra_stormcentre_live", "data_source_notes": "Unofficial public Hydro One Storm Centre (Kubra) live snapshot; not operational outage history."}, "geometry": {"type": "Point", "coordinates": [-79.26176, 45.22306]}}, {"type": "Feature", "properties": {"outage_id": "7-2", "title": "Area Outage", "customers_affected": 19, "n_outages_in_cluster_record": 1, "cause": "Pending Classification", "status": "", "etr": "2026-10-09T00:45:00Z", "start_time": "", "region": "", "municipality": "", "cluster": false, "source_url": "https://kubra.io/cluster-data/312/e0192d42-e3c7-4d12-9872-137fb6304921/8d7627d3-561b-4f52-99d9-ee61dcc34c7c/public/cluster-1/0302213.json", "quadkey": "0302213", "utility": "Hydro One", "province": "Ontario", "feed": "kubra_stormcentre_live", "data_source_notes": "Unofficial public Hydro One Storm Centre (Kubra) live snapshot; not operational outage history."}, "geometry": {"type": "Point", "coordinates": [-80.06138, 46.32048]}}, {"type": "Feature", "properties": {"outage_id": "9-0", "title": "Area Outage", "customers_affected": 19, "n_outages_in_cluster_record": 1, "cause": "Pending Classification", "status": "", "etr": "2026-10-09T01:00:00Z", "start_time": "", "region": "", "municipality": "", "cluster": false, "source_url": "https://kubra.io/cluster-data/011/e0192d42-e3c7-4d12-9872-137fb6304921/8d7627d3-561b-4f52-99d9-ee61dcc34c7c/public/cluster-1/030223110.json", "quadkey": "030223110", "utility": "Hydro One", "province": "Ontario", "feed": "kubra_stormcentre_live", "data_source_notes": "Unofficial public Hydro One Storm Centre (Kubra) live snapshot; not operational outage history."}, "geometry": {"type": "Point", "coordinates": [-79.56101, 44.75147]}}, {"type": "Feature", "properties": {"outage_id": "9-1", "title": "Area Outage", "customers_affected": 19, "n_outages_in_cluster_record": 1, "cause": "Pending Classification", "status": "", "etr": "2026-10-09T01:00:00Z", "start_time": "", "region": "", "municipality": "", "cluster": false, "source_url": "https://kubra.io/cluster-data/011/e0192d42-e3c7-4d12-9872-137fb6304921/8d7627d3-561b-4f52-99d9-ee61dcc34c7c/public/cluster-1/030223110.json", "quadkey": "030223110", "utility": "Hydro One", "province": "Ontario", "feed": "kubra_stormcentre_live", "data_source_notes": "Unofficial public Hydro One Storm Centre (Kubra) live snapshot; not operational outage history."}, "geometry": {"type": "Point", "coordinates": [-79.58425, 45.01937]}}, {"type": "Feature", "properties": {"outage_id": "9-2", "title": "Area Outage", "customers_affected": 19, "n_outages_in_cluster_record": 1, "cause": "Currently Under Investigation", "status": "", "etr": "ETR-EXP", "start_time": "", "region": "", "municipality": "", "cluster": false, "source_url": "https://kubra.io/cluster-data/011/e0192d42-e3c7-4d12-9872-137fb6304921/8d7627d3-561b-4f52-99d9-ee61dcc34c7c/public/cluster-1/030223110.json", "quadkey": "030223110", "utility": "Hydro One", "province": "Ontario", "feed": "kubra_stormcentre_live", "data_source_notes": "Unofficial public Hydro One Storm Centre (Kubra) live snapshot; not operational outage history."}, "geometry": {"type": "Point", "coordinates": [-79.48562, 45.0032]}}, {"type": "Feature", "properties": {"outage_id": "9-0", "title": "Area Outage", "customers_affected": 19, "n_outages_in_cluster_record": 1, "cause": "Pending Classification", "status": "", "etr": "2026-10-08T23:00:00Z", "start_time": "", "region": "", "municipality": "", "cluster": false, "source_url": "https://kubra.io/cluster-data/211/e0192d42-e3c7-4d12-9872-137fb6304921/8d7627d3-561b-4f52-99d9-ee61dcc34c7c/public/cluster-1/030223112.json", "quadkey": "030223112", "utility": "Hydro One", "province": "Ontario", "feed": "kubra_stormcentre_live", "data_source_notes": "Unofficial public Hydro One Storm Centre (Kubra) live snapshot; not operational outage history."}, "geometry": {"type": "Point", "coordinates": [-79.57156, 44.46346]}}, {"type": "Feature", "properties": {"outage_id": "10-0", "title": "Area Outage", "customers_affected": 19, "n_outages_in_cluster_record": 1, "cause": "Currently Under Investigation", "status": "", "etr": "2026-10-10T22:00:00Z", "start_time": "", "region": "", "municipality": "", "cluster": false, "source_url": "https://kubra.io/cluster-data/031/e0192d42-e3c7-4d12-9872-137fb6304921/8d7627d3-561b-4f52-99d9-ee61dcc34c7c/public/cluster-1/0302231130.json", "quadkey": "0302231130", "utility": "Hydro One", "province": "Ontario", "feed": "kubra_stormcentre_live", "data_source_notes": "Unofficial public Hydro One Storm Centre (Kubra) live snapshot; not operational outage history."}, "geometry": {"type": "Polygon", "coordinates": [[[-79.21591, 44.44331], [-79.2166, 44.45202], [-79.21474, 44.44764], [-79.21484, 44.44337], [-79.21591, 44.44331]]]}}, {"type": "Feature", "properties": {"outage_id": "12-0", "title": "Area Outage", "customers_affected": 39, "n_outages_in_cluster_record": 1, "cause": "Pending Classification", "status": "", "etr": "ETR-EXP", "start_time": "", "region": "", "municipality": "", "cluster": false, "source_url": "https://kubra.io/cluster-data/111/e0192d42-e3c7-4d12-9872-137fb6304921/8d7627d3-561b-4f52-99d9-ee61dcc34c7c/public/cluster-1/030223113111.json", "quadkey": "030223113111", "utility": "Hydro One", "province": "Ontario", "feed": "kubra_stormcentre_live", "data_source_notes": "Unofficial public Hydro One Storm Centre (Kubra) live snapshot; not operational outage history."}, "geometry": {"type": "Polygon", "coordinates": [[[-78.77588, 44.5743], [-78.77506, 44.57493], [-78.77042, 44.57795], [-78.76873, 44.57869], [-78.77101, 44.57695], [-78.77588, 44.5743]]]}}, {"type": "Feature", "properties": {"outage_id": "12-1", "title": "Area Outage", "customers_affected": 19, "n_outages_in_cluster_record": 1, "cause": "Pending Classification", "status": "", "etr": "2026-10-08T22:45:00Z", "start_time": "", "region": "", "municipality": "", "cluster": false, "source_url": "https://kubra.io/cluster-data/111/e0192d42-e3c7-4d12-9872-137fb6304921/8d7627d3-561b-4f52-99d9-ee61dcc34c7c/public/cluster-1/030223113111.json", "quadkey": "030223113111", "utility": "Hydro One", "province": "Ontario", "feed": "kubra_stormcentre_live", "data_source_notes": "Unofficial public Hydro One Storm Centre (Kubra) live snapshot; not operational outage history."}, "geometry": {"type": "Point", "coordinates": [-78.77328, 44.57602]}}, {"type": "Feature", "properties": {"outage_id": "9-0", "title": "Area Outage", "customers_affected": 19, "n_outages_in_cluster_record": 1, "cause": "Pending Classification", "status": "", "etr": "2026-10-09T00:45:00Z", "start_time": "", "region": "", "municipality": "", "cluster": false, "source_url": "https://kubra.io/cluster-data/021/e0192d42-e3c7-4d12-9872-137fb6304921/8d7627d3-561b-4f52-99d9-ee61dcc34c7c/public/cluster-1/030223120.json", "quadkey": "030223120", "utility": "Hydro One", "province": "Ontario", "feed": "kubra_stormcentre_live", "data_source_notes": "Unofficial public Hydro One Storm Centre (Kubra) live snapshot; not operational outage history."}, "geometry": {"type": "Point", "coordinates": [-81.48717, 43.59414]}}, {"type": "Feature", "properties": {"outage_id": "12-0", "title": "Area Outage", "customers_affected": 19, "n_outages_in_cluster_record": 1, "cause": "Repairing Equipment", "status": "", "etr": "2026-10-08T23:30:00Z", "start_time": "", "region": "", "municipality": "", "cluster": false, "source_url": "https://kubra.io/cluster-data/112/e0192d42-e3c7-4d12-9872-137fb6304921/8d7627d3-561b-4f52-99d9-ee61dcc34c7c/public/cluster-1/030223121211.json", "quadkey": "030223121211", "utility": "Hydro One", "province": "Ontario", "feed": "kubra_stormcentre_live", "data_source_notes": "Unofficial public Hydro One Storm Centre (Kubra) live snapshot; not operational outage history."}, "geometry": {"type": "Point", "coordinates": [-80.57118, 43.81208]}}, {"type": "Feature", "properties": {"outage_id": "12-1", "title": "Area Outage", "customers_affected": 19, "n_outages_in_cluster_record": 1, "cause": "Repairing Equipment", "status": "", "etr": "2026-10-08T23:30:00Z", "start_time": "", "region": "", "municipality": "", "cluster": false, "source_url": "https://kubra.io/cluster-data/112/e0192d42-e3c7-4d12-9872-137fb6304921/8d7627d3-561b-4f52-99d9-ee61dcc34c7c/public/cluster-1/030223121211.json", "quadkey": "030223121211", "utility": "Hydro One", "province": "Ontario", "feed": "kubra_stormcentre_live", "data_source_notes": "Unofficial public Hydro One Storm Centre (Kubra) live snapshot; not operational outage history."}, "geometry": {"type": "Point", "coordinates": [-80.5716, 43.82673]}}, {"type": "Feature", "properties": {"outage_id": "12-2", "title": "Area Outage", "customers_affected": 19, "n_outages_in_cluster_record": 1, "cause": "Repairing Equipment", "status": "", "etr": "2026-10-08T23:30:00Z", "start_time": "", "region": "", "municipality": "", "cluster": false, "source_url": "https://kubra.io/cluster-data/112/e0192d42-e3c7-4d12-9872-137fb6304921/8d7627d3-561b-4f52-99d9-ee61dcc34c7c/public/cluster-1/030223121211.json", "quadkey": "030223121211", "utility": "Hydro One", "province": "Ontario", "feed": "kubra_stormcentre_live", "data_source_notes": "Unofficial public Hydro One Storm Centre (Kubra) live snapshot; not operational outage history."}, "geometry": {"type": "Point", "coordinates": [-80.54404, 43.82845]}}, {"type": "Feature", "properties": {"outage_id": "9-0", "title": "Area Outage", "customers_affected": 19, "n_outages_in_cluster_record": 1, "cause": "Pending Classification", "status": "", "etr": "2026-10-08T23:00:00Z", "start_time": "", "region": "", "municipality": "", "cluster": false, "source_url": "https://kubra.io/cluster-data/031/e0192d42-e3c7-4d12-9872-137fb6304921/8d7627d3-561b-4f52-99d9-ee61dcc34c7c/public/cluster-1/030223130.json", "quadkey": "030223130", "utility": "Hydro One", "province": "Ontario", "feed": "kubra_stormcentre_live", "data_source_notes": "Unofficial public Hydro One Storm Centre (Kubra) live snapshot; not operational outage history."}, "geometry": {"type": "Point", "coordinates": [-79.96303, 43.83437]}}, {"type": "Feature", "properties": {"outage_id": "9-1", "title": "Area Outage", "customers_affected": 19, "n_outages_in_cluster_record": 1, "cause": "Pending Classification", "status": "", "etr": "2026-10-09T00:15:00Z", "start_time": "", "region": "", "municipality": "", "cluster": false, "source_url": "https://kubra.io/cluster-data/031/e0192d42-e3c7-4d12-9872-137fb6304921/8d7627d3-561b-4f52-99d9-ee61dcc34c7c/public/cluster-1/030223130.json", "quadkey": "030223130", "utility": "Hydro One", "province": "Ontario", "feed": "kubra_stormcentre_live", "data_source_notes": "Unofficial public Hydro One Storm Centre (Kubra) live snapshot; not operational outage history."}, "geometry": {"type": "Point", "coordinates": [-79.62691, 43.92609]}}, {"type": "Feature", "properties": {"outage_id": "9-0", "title": "Area Outage", "customers_affected": 19, "n_outages_in_cluster_record": 1, "cause": "Pending Classification", "status": "", "etr": "2026-10-08T23:00:00Z", "start_time": "", "region": "", "municipality": "", "cluster": false, "source_url": "https://kubra.io/cluster-data/231/e0192d42-e3c7-4d12-9872-137fb6304921/8d7627d3-561b-4f52-99d9-ee61dcc34c7c/public/cluster-1/030223132.json", "quadkey": "030223132", "utility": "Hydro One", "province": "Ontario", "feed": "kubra_stormcentre_live", "data_source_notes": "Unofficial public Hydro One Storm Centre (Kubra) live snapshot; not operational outage history."}, "geometry": {"type": "Point", "coordinates": [-79.97698, 43.3599]}}, {"type": "Feature", "properties": {"outage_id": "9-1", "title": "Area Outage", "customers_affected": 19, "n_outages_in_cluster_record": 1, "cause": "Pending Classification", "status": "", "etr": "2026-10-09T00:30:00Z", "start_time": "", "region": "", "municipality": "", "cluster": false, "source_url": "https://kubra.io/cluster-data/231/e0192d42-e3c7-4d12-9872-137fb6304921/8d7627d3-561b-4f52-99d9-ee61dcc34c7c/public/cluster-1/030223132.json", "quadkey": "030223132", "utility": "Hydro One", "province": "Ontario", "feed": "kubra_stormcentre_live", "data_source_notes": "Unofficial public Hydro One Storm Centre (Kubra) live snapshot; not operational outage history."}, "geometry": {"type": "Point", "coordinates": [-80.08008, 43.44472]}}, {"type": "Feature", "properties": {"outage_id": "12-0", "title": "Area Outage", "customers_affected": 19, "n_outages_in_cluster_record": 1, "cause": "Performing Regular Maintenance", "status": "", "etr": "2026-10-09T01:00:00Z", "start_time": "", "region": "", "municipality": "", "cluster": false, "source_url": "https://kubra.io/cluster-data/003/e0192d42-e3c7-4d12-9872-137fb6304921/8d7627d3-561b-4f52-99d9-ee61dcc34c7c/public/cluster-1/030223300300.json", "quadkey": "030223300300", "utility": "Hydro One", "province": "Ontario", "feed": "kubra_stormcentre_live", "data_source_notes": "Unofficial public Hydro One Storm Centre (Kubra) live snapshot; not operational outage history."}, "geometry": {"type": "Point", "coordinates": [-81.12413, 42.79822]}}, {"type": "Feature", "properties": {"outage_id": "12-0", "title": "Area Outage", "customers_affected": 19, "n_outages_in_cluster_record": 1, "cause": "Performing Regular Maintenance", "status": "", "etr": "2026-10-09T01:00:00Z", "start_time": "", "region": "", "municipality": "", "cluster": false, "source_url": "https://kubra.io/cluster-data/103/e0192d42-e3c7-4d12-9872-137fb6304921/8d7627d3-561b-4f52-99d9-ee61dcc34c7c/public/cluster-1/030223300301.json", "quadkey": "030223300301", "utility": "Hydro One", "province": "Ontario", "feed": "kubra_stormcentre_live", "data_source_notes": "Unofficial public Hydro One Storm Centre (Kubra) live snapshot; not operational outage history."}, "geometry": {"type": "Point", "coordinates": [-81.12184, 42.79814]}}, {"type": "Feature", "properties": {"outage_id": "12-0", "title": "Area Outage", "customers_affected": 19, "n_outages_in_cluster_record": 1, "cause": "Pending Classification", "status": "", "etr": "2026-10-09T01:00:00Z", "start_time": "", "region": "", "municipality": "", "cluster": false, "source_url": "https://kubra.io/cluster-data/222/e0192d42-e3c7-4d12-9872-137fb6304921/8d7627d3-561b-4f52-99d9-ee61dcc34c7c/public/cluster-1/030230220222.json", "quadkey": "030230220222", "utility": "Hydro One", "province": "Ontario", "feed": "kubra_stormcentre_live", "data_source_notes": "Unofficial public Hydro One Storm Centre (Kubra) live snapshot; not operational outage history."}, "geometry": {"type": "Point", "coordinates": [-78.73184, 45.59627]}}, {"type": "Feature", "properties": {"outage_id": "12-1", "title": "Area Outage", "customers_affected": 19, "n_outages_in_cluster_record": 1, "cause": "Pending Classification", "status": "", "etr": "2026-10-09T00:15:00Z", "start_time": "", "region": "", "municipality": "", "cluster": false, "source_url": "https://kubra.io/cluster-data/222/e0192d42-e3c7-4d12-9872-137fb6304921/8d7627d3-561b-4f52-99d9-ee61dcc34c7c/public/cluster-1/030230220222.json", "quadkey": "030230220222", "utility": "Hydro One", "province": "Ontario", "feed": "kubra_stormcentre_live", "data_source_notes": "Unofficial public Hydro One Storm Centre (Kubra) live snapshot; not operational outage history."}, "geometry": {"type": "Point", "coordinates": [-78.73184, 45.59627]}}, {"type": "Feature", "properties": {"outage_id": "9-0", "title": "Area Outage", "customers_affected": 56, "n_outages_in_cluster_record": 1, "cause": "Replacing Pole", "status": "", "etr": "2026-10-08T22:30:00Z", "start_time": "", "region": "", "municipality": "", "cluster": false, "source_url": "https://kubra.io/cluster-data/322/e0192d42-e3c7-4d12-9872-137fb6304921/8d7627d3-561b-4f52-99d9-ee61dcc34c7c/public/cluster-1/030230223.json", "quadkey": "030230223", "utility": "Hydro One", "province": "Ontario", "feed": "kubra_stormcentre_live", "data_source_notes": "Unofficial public Hydro One Storm Centre (Kubra) live snapshot; not operational outage history."}, "geometry": {"type": "Polygon", "coordinates": [[[-77.36028, 45.08186], [-77.35601, 45.09634], [-77.35109, 45.09913], [-77.34551, 45.10144], [-77.34164, 45.09736], [-77.33943, 45.09342], [-77.3403, 45.09022], [-77.349, 45.08513], [-77.36028, 45.08186]]]}}, {"type": "Feature", "properties": {"outage_id": "12-0", "title": "Area Outage", "customers_affected": 19, "n_outages_in_cluster_record": 1, "cause": "Extreme Weather Conditions", "status": "", "etr": "2026-10-08T22:30:00Z", "start_time": "", "region": "", "municipality": "", "cluster": false, "source_url": "https://kubra.io/cluster-data/000/e0192d42-e3c7-4d12-9872-137fb6304921/8d7627d3-561b-4f52-99d9-ee61dcc34c7c/public/cluster-1/030232000000.json", "quadkey": "030232000000", "utility": "Hydro One", "province": "Ontario", "feed": "kubra_stormcentre_live", "data_source_notes": "Unofficial public Hydro One Storm Centre (Kubra) live snapshot; not operational outage history."}, "geometry": {"type": "Polygon", "coordinates": [[[-78.64568, 45.02249], [-78.68906, 45.03044], [-78.69008, 45.03064], [-78.68301, 45.03182], [-78.66534, 45.02874], [-78.65305, 45.02514], [-78.64568, 45.02249]]]}}, {"type": "Feature", "properties": {"outage_id": "12-0", "title": "Area Outage", "customers_affected": 20, "n_outages_in_cluster_record": 1, "cause": "Extreme Weather Conditions", "status": "", "etr": "2026-10-08T22:30:00Z", "start_time": "", "region": "", "municipality": "", "cluster": false, "source_url": "https://kubra.io/cluster-data/100/e0192d42-e3c7-4d12-9872-137fb6304921/8d7627d3-561b-4f52-99d9-ee61dcc34c7c/public/cluster-1/030232000001.json", "quadkey": "030232000001", "utility": "Hydro One", "province": "Ontario", "feed": "kubra_stormcentre_live", "data_source_notes": "Unofficial public Hydro One Storm Centre (Kubra) live snapshot; not operational outage history."}, "geometry": {"type": "Polygon", "coordinates": [[[-78.6696, 45.02577], [-78.68442, 45.03139], [-78.67923, 45.03195], [-78.63206, 45.03709], [-78.62955, 45.03419], [-78.63032, 45.03126], [-78.6696, 45.02577]]]}}, {"type": "Feature", "properties": {"outage_id": "12-0", "title": "Area Outage", "customers_affected": 24, "n_outages_in_cluster_record": 1, "cause": "Extreme Weather Conditions", "status": "", "etr": "2026-10-08T22:30:00Z", "start_time": "", "region": "", "municipality": "", "cluster": false, "source_url": "https://kubra.io/cluster-data/300/e0192d42-e3c7-4d12-9872-137fb6304921/8d7627d3-561b-4f52-99d9-ee61dcc34c7c/public/cluster-1/030232000003.json", "quadkey": "030232000003", "utility": "Hydro One", "province": "Ontario", "feed": "kubra_stormcentre_live", "data_source_notes": "Unofficial public Hydro One Storm Centre (Kubra) live snapshot; not operational outage history."}, "geometry": {"type": "Polygon", "coordinates": [[[-78.64355, 45.02092], [-78.67753, 45.02513], [-78.69066, 45.03143], [-78.65821, 45.03013], [-78.64296, 45.02249], [-78.64355, 45.02092]]]}}, {"type": "Feature", "properties": {"outage_id": "11-0", "title": "Area Outage", "customers_affected": 19, "n_outages_in_cluster_record": 1, "cause": "Pending Classification", "status": "", "etr": "2026-10-09T01:00:00Z", "start_time": "", "region": "", "municipality": "", "cluster": false, "source_url": "https://kubra.io/cluster-data/200/e0192d42-e3c7-4d12-9872-137fb6304921/8d7627d3-561b-4f52-99d9-ee61dcc34c7c/public/cluster-1/03023200002.json", "quadkey": "03023200002", "utility": "Hydro One", "province": "Ontario", "feed": "kubra_stormcentre_live", "data_source_notes": "Unofficial public Hydro One Storm Centre (Kubra) live snapshot; not operational outage history."}, "geometry": {"type": "Point", "coordinates": [-78.62163, 44.95856]}}, {"type": "Feature", "properties": {"outage_id": "9-0", "title": "Area Outage", "customers_affected": 19, "n_outages_in_cluster_record": 1, "cause": "Pending Classification", "status": "", "etr": "2026-10-09T00:45:00Z", "start_time": "", "region": "", "municipality": "", "cluster": false, "source_url": "https://kubra.io/cluster-data/100/e0192d42-e3c7-4d12-9872-137fb6304921/8d7627d3-561b-4f52-99d9-ee61dcc34c7c/public/cluster-1/030232001.json", "quadkey": "030232001", "utility": "Hydro One", "province": "Ontario", "feed": "kubra_stormcentre_live", "data_source_notes": "Unofficial public Hydro One Storm Centre (Kubra) live snapshot; not operational outage history."}, "geometry": {"type": "Point", "coordinates": [-77.78481, 45.0122]}}, {"type": "Feature", "properties": {"outage_id": "9-0", "title": "Area Outage", "customers_affected": 19, "n_outages_in_cluster_record": 1, "cause": "Extreme Weather Conditions", "status": "", "etr": "ETR-EXP", "start_time": "", "region": "", "municipality": "", "cluster": false, "source_url": "https://kubra.io/cluster-data/200/e0192d42-e3c7-4d12-9872-137fb6304921/8d7627d3-561b-4f52-99d9-ee61dcc34c7c/public/cluster-1/030232002.json", "quadkey": "030232002", "utility": "Hydro One", "province": "Ontario", "feed": "kubra_stormcentre_live", "data_source_notes": "Unofficial public Hydro One Storm Centre (Kubra) live snapshot; not operational outage history."}, "geometry": {"type": "Point", "coordinates": [-78.24106, 44.16871]}}, {"type": "Feature", "properties": {"outage_id": "9-1", "title": "Area Outage", "customers_affected": 19, "n_outages_in_cluster_record": 1, "cause": "Tree on Line", "status": "", "etr": "2026-10-08T22:45:00Z", "start_time": "", "region": "", "municipality": "", "cluster": false, "source_url": "https://kubra.io/cluster-data/200/e0192d42-e3c7-4d12-9872-137fb6304921/8d7627d3-561b-4f52-99d9-ee61dcc34c7c/public/cluster-1/030232002.json", "quadkey": "030232002", "utility": "Hydro One", "province": "Ontario", "feed": "kubra_stormcentre_live", "data_source_notes": "Unofficial public Hydro One Storm Centre (Kubra) live snapshot; not operational outage history."}, "geometry": {"type": "Polygon", "coordinates": [[[-78.41254, 44.18601], [-78.40432, 44.18988], [-78.39958, 44.19022], [-78.39373, 44.19041], [-78.40172, 44.18666], [-78.41254, 44.18601]]]}}, {"type": "Feature", "properties": {"outage_id": "9-2", "title": "Area Outage", "customers_affected": 104, "n_outages_in_cluster_record": 1, "cause": "Pending Classification", "status": "", "etr": "2026-10-08T23:00:00Z", "start_time": "", "region": "", "municipality": "", "cluster": false, "source_url": "https://kubra.io/cluster-data/200/e0192d42-e3c7-4d12-9872-137fb6304921/8d7627d3-561b-4f52-99d9-ee61dcc34c7c/public/cluster-1/030232002.json", "quadkey": "030232002", "utility": "Hydro One", "province": "Ontario", "feed": "kubra_stormcentre_live", "data_source_notes": "Unofficial public Hydro One Storm Centre (Kubra) live snapshot; not operational outage history."}, "geometry": {"type": "Polygon", "coordinates": [[[-78.22641, 44.33572], [-78.24732, 44.33979], [-78.24919, 44.34054], [-78.25073, 44.3474], [-78.23804, 44.36084], [-78.22519, 44.37102], [-78.22359, 44.3721], [-78.18987, 44.38494], [-78.1829, 44.36455], [-78.18244, 44.35499], [-78.21551, 44.33803], [-78.22641, 44.33572]]]}}, {"type": "Feature", "properties": {"outage_id": "9-3", "title": "Area Outage", "customers_affected": 19, "n_outages_in_cluster_record": 1, "cause": "Pending Classification", "status": "", "etr": "2026-10-08T23:00:00Z", "start_time": "", "region": "", "municipality": "", "cluster": false, "source_url": "https://kubra.io/cluster-data/200/e0192d42-e3c7-4d12-9872-137fb6304921/8d7627d3-561b-4f52-99d9-ee61dcc34c7c/public/cluster-1/030232002.json", "quadkey": "030232002", "utility": "Hydro One", "province": "Ontario", "feed": "kubra_stormcentre_live", "data_source_notes": "Unofficial public Hydro One Storm Centre (Kubra) live snapshot; not operational outage history."}, "geometry": {"type": "Point", "coordinates": [-78.27168, 44.5698]}}, {"type": "Feature", "properties": {"outage_id": "11-0", "title": "Area Outage", "customers_affected": 19, "n_outages_in_cluster_record": 1, "cause": "Tree on Line", "status": "", "etr": "2026-10-08T22:45:00Z", "start_time": "", "region": "", "municipality": "", "cluster": false, "source_url": "https://kubra.io/cluster-data/033/e0192d42-e3c7-4d12-9872-137fb6304921/8d7627d3-561b-4f52-99d9-ee61dcc34c7c/public/cluster-1/03023200330.json", "quadkey": "03023200330", "utility": "Hydro One", "province": "Ontario", "feed": "kubra_stormcentre_live", "data_source_notes": "Unofficial public Hydro One Storm Centre (Kubra) live snapshot; not operational outage history."}, "geometry": {"type": "Point", "coordinates": [-77.55632, 44.29228]}}, {"type": "Feature", "properties": {"outage_id": "11-0", "title": "Area Outage", "customers_affected": 119, "n_outages_in_cluster_record": 1, "cause": "Tree on Line", "status": "", "etr": "ETR-EXP", "start_time": "", "region": "", "municipality": "", "cluster": false, "source_url": "https://kubra.io/cluster-data/133/e0192d42-e3c7-4d12-9872-137fb6304921/8d7627d3-561b-4f52-99d9-ee61dcc34c7c/public/cluster-1/03023200331.json", "quadkey": "03023200331", "utility": "Hydro One", "province": "Ontario", "feed": "kubra_stormcentre_live", "data_source_notes": "Unofficial public Hydro One Storm Centre (Kubra) live snapshot; not operational outage history."}, "geometry": {"type": "Polygon", "coordinates": [[[-77.43936, 44.25629], [-77.46422, 44.29881], [-77.4686, 44.30679], [-77.46653, 44.31754], [-77.45155, 44.31849], [-77.43512, 44.29085], [-77.43936, 44.25629]]]}}, {"type": "Feature", "properties": {"outage_id": "11-1", "title": "Area Outage", "customers_affected": 446, "n_outages_in_cluster_record": 1, "cause": "Tree on Line", "status": "", "etr": "2026-10-08T23:30:00Z", "start_time": "", "region": "", "municipality": "", "cluster": false, "source_url": "https://kubra.io/cluster-data/133/e0192d42-e3c7-4d12-9872-137fb6304921/8d7627d3-561b-4f52-99d9-ee61dcc34c7c/public/cluster-1/03023200331.json", "quadkey": "03023200331", "utility": "Hydro One", "province": "Ontario", "feed": "kubra_stormcentre_live", "data_source_notes": "Unofficial public Hydro One Storm Centre (Kubra) live snapshot; not operational outage history."}, "geometry": {"type": "Polygon", "coordinates": [[[-77.44128, 44.25369], [-77.45303, 44.27289], [-77.46103, 44.28861], [-77.46086, 44.2896], [-77.45164, 44.32855], [-77.41695, 44.34051], [-77.38637, 44.33296], [-77.36804, 44.32782], [-77.44128, 44.25369]]]}}, {"type": "Feature", "properties": {"outage_id": "9-0", "title": "Area Outage", "customers_affected": 19, "n_outages_in_cluster_record": 1, "cause": "Pending Classification", "status": "", "etr": "2026-10-08T23:45:00Z", "start_time": "", "region": "", "municipality": "", "cluster": false, "source_url": "https://kubra.io/cluster-data/010/e0192d42-e3c7-4d12-9872-137fb6304921/8d7627d3-561b-4f52-99d9-ee61dcc34c7c/public/cluster-1/030232010.json", "quadkey": "030232010", "utility": "Hydro One", "province": "Ontario", "feed": "kubra_stormcentre_live", "data_source_notes": "Unofficial public Hydro One Storm Centre (Kubra) live snapshot; not operational outage history."}, "geometry": {"type": "Point", "coordinates": [-76.87819, 44.8998]}}, {"type": "Feature", "properties": {"outage_id": "9-0", "title": "Area Outage", "customers_affected": 117, "n_outages_in_cluster_record": 1, "cause": "Pending Classification", "status": "", "etr": "2026-10-08T23:15:00Z", "start_time": "", "region": "", "municipality": "", "cluster": false, "source_url": "https://kubra.io/cluster-data/110/e0192d42-e3c7-4d12-9872-137fb6304921/8d7627d3-561b-4f52-99d9-ee61dcc34c7c/public/cluster-1/030232011.json", "quadkey": "030232011", "utility": "Hydro One", "province": "Ontario", "feed": "kubra_stormcentre_live", "data_source_notes": "Unofficial public Hydro One Storm Centre (Kubra) live snapshot; not operational outage history."}, "geometry": {"type": "Polygon", "coordinates": [[[-76.41655, 44.73709], [-76.43624, 44.74421], [-76.43834, 44.74598], [-76.43884, 44.74653], [-76.44319, 44.75268], [-76.44336, 44.75371], [-76.42055, 44.75742], [-76.40451, 44.75452], [-76.41219, 44.7407], [-76.41655, 44.73709]]]}}, {"type": "Feature", "properties": {"outage_id": "10-0", "title": "Area Outage", "customers_affected": 19, "n_outages_in_cluster_record": 1, "cause": "Pending Classification", "status": "", "etr": "2026-10-08T23:15:00Z", "start_time": "", "region": "", "municipality": "", "cluster": false, "source_url": "https://kubra.io/cluster-data/021/e0192d42-e3c7-4d12-9872-137fb6304921/8d7627d3-561b-4f52-99d9-ee61dcc34c7c/public/cluster-1/0302320120.json", "quadkey": "0302320120", "utility": "Hydro One", "province": "Ontario", "feed": "kubra_stormcentre_live", "data_source_notes": "Unofficial public Hydro One Storm Centre (Kubra) live snapshot; not operational outage history."}, "geometry": {"type": "Point", "coordinates": [-77.29038, 44.43196]}}, {"type": "Feature", "properties": {"outage_id": "11-0", "title": "Area Outage", "customers_affected": 19, "n_outages_in_cluster_record": 1, "cause": "Tree on Line", "status": "", "etr": "2026-10-09T00:45:00Z", "start_time": "", "region": "", "municipality": "", "cluster": false, "source_url": "https://kubra.io/cluster-data/022/e0192d42-e3c7-4d12-9872-137fb6304921/8d7627d3-561b-4f52-99d9-ee61dcc34c7c/public/cluster-1/03023201220.json", "quadkey": "03023201220", "utility": "Hydro One", "province": "Ontario", "feed": "kubra_stormcentre_live", "data_source_notes": "Unofficial public Hydro One Storm Centre (Kubra) live snapshot; not operational outage history."}, "geometry": {"type": "Point", "coordinates": [-77.32122, 44.26965]}}, {"type": "Feature", "properties": {"outage_id": "11-1", "title": "Area Outage", "customers_affected": 19, "n_outages_in_cluster_record": 1, "cause": "Tree on Line", "status": "", "etr": "2026-10-09T00:45:00Z", "start_time": "", "region": "", "municipality": "", "cluster": false, "source_url": "https://kubra.io/cluster-data/022/e0192d42-e3c7-4d12-9872-137fb6304921/8d7627d3-561b-4f52-99d9-ee61dcc34c7c/public/cluster-1/03023201220.json", "quadkey": "03023201220", "utility": "Hydro One", "province": "Ontario", "feed": "kubra_stormcentre_live", "data_source_notes": "Unofficial public Hydro One Storm Centre (Kubra) live snapshot; not operational outage history."}, "geometry": {"type": "Point", "coordinates": [-77.31975, 44.24662]}}, {"type": "Feature", "properties": {"outage_id": "10-0", "title": "Area Outage", "customers_affected": 71, "n_outages_in_cluster_record": 1, "cause": "Pending Classification", "status": "", "etr": "2026-10-09T01:30:00Z", "start_time": "", "region": "", "municipality": "", "cluster": false, "source_url": "https://kubra.io/cluster-data/031/e0192d42-e3c7-4d12-9872-137fb6304921/8d7627d3-561b-4f52-99d9-ee61dcc34c7c/public/cluster-1/0302320130.json", "quadkey": "0302320130", "utility": "Hydro One", "province": "Ontario", "feed": "kubra_stormcentre_live", "data_source_notes": "Unofficial public Hydro One Storm Centre (Kubra) live snapshot; not operational outage history."}, "geometry": {"type": "Polygon", "coordinates": [[[-76.47207, 44.58178], [-76.4922, 44.58359], [-76.49352, 44.58577], [-76.48658, 44.58874], [-76.47606, 44.59023], [-76.47417, 44.59016], [-76.47057, 44.58576], [-76.46978, 44.5847], [-76.47083, 44.58273], [-76.47207, 44.58178]]]}}, {"type": "Feature", "properties": {"outage_id": "11-0", "title": "Area Outage", "customers_affected": 19, "n_outages_in_cluster_record": 1, "cause": "Pending Classification", "status": "", "etr": "2026-10-09T00:30:00Z", "start_time": "", "region": "", "municipality": "", "cluster": false, "source_url": "https://kubra.io/cluster-data/313/e0192d42-e3c7-4d12-9872-137fb6304921/8d7627d3-561b-4f52-99d9-ee61dcc34c7c/public/cluster-1/03023201313.json", "quadkey": "03023201313", "utility": "Hydro One", "province": "Ontario", "feed": "kubra_stormcentre_live", "data_source_notes": "Unofficial public Hydro One Storm Centre (Kubra) live snapshot; not operational outage history."}, "geometry": {"type": "Point", "coordinates": [-76.00917, 44.38138]}}, {"type": "Feature", "properties": {"outage_id": "11-1", "title": "Area Outage", "customers_affected": 435, "n_outages_in_cluster_record": 1, "cause": "Pending Classification", "status": "", "etr": "2026-10-09T00:15:00Z", "start_time": "", "region": "", "municipality": "", "cluster": false, "source_url": "https://kubra.io/cluster-data/313/e0192d42-e3c7-4d12-9872-137fb6304921/8d7627d3-561b-4f52-99d9-ee61dcc34c7c/public/cluster-1/03023201313.json", "quadkey": "03023201313", "utility": "Hydro One", "province": "Ontario", "feed": "kubra_stormcentre_live", "data_source_notes": "Unofficial public Hydro One Storm Centre (Kubra) live snapshot; not operational outage history."}, "geometry": {"type": "Polygon", "coordinates": [[[-75.97158, 44.3436], [-76.00577, 44.34432], [-76.01031, 44.34442], [-76.01219, 44.34565], [-76.01377, 44.36025], [-76.00656, 44.37455], [-76.00475, 44.37513], [-75.97307, 44.38258], [-75.93314, 44.37238], [-75.93406, 44.36317], [-75.93555, 44.35868], [-75.95988, 44.34813], [-75.97074, 44.34378], [-75.97158, 44.3436]]]}}, {"type": "Feature", "properties": {"outage_id": "10-0", "title": "Area Outage", "customers_affected": 19, "n_outages_in_cluster_record": 1, "cause": "Pending Classification", "status": "", "etr": "2026-10-08T23:00:00Z", "start_time": "", "region": "", "municipality": "", "cluster": false, "source_url": "https://kubra.io/cluster-data/012/e0192d42-e3c7-4d12-9872-137fb6304921/8d7627d3-561b-4f52-99d9-ee61dcc34c7c/public/cluster-1/0302320210.json", "quadkey": "0302320210", "utility": "Hydro One", "province": "Ontario", "feed": "kubra_stormcentre_live", "data_source_notes": "Unofficial public Hydro One Storm Centre (Kubra) live snapshot; not operational outage history."}, "geometry": {"type": "Point", "coordinates": [-78.01243, 44.08657]}}, {"type": "Feature", "properties": {"outage_id": "10-0", "title": "Area Outage", "customers_affected": 19, "n_outages_in_cluster_record": 1, "cause": "Pending Classification", "status": "", "etr": "2026-10-09T01:00:00Z", "start_time": "", "region": "", "municipality": "", "cluster": false, "source_url": "https://kubra.io/cluster-data/112/e0192d42-e3c7-4d12-9872-137fb6304921/8d7627d3-561b-4f52-99d9-ee61dcc34c7c/public/cluster-1/0302320211.json", "quadkey": "0302320211", "utility": "Hydro One", "province": "Ontario", "feed": "kubra_stormcentre_live", "data_source_notes": "Unofficial public Hydro One Storm Centre (Kubra) live snapshot; not operational outage history."}, "geometry": {"type": "Point", "coordinates": [-77.40095, 44.07075]}}, {"type": "Feature", "properties": {"outage_id": "8-0", "title": "Area Outage", "customers_affected": 19, "n_outages_in_cluster_record": 1, "cause": "Pending Classification", "status": "", "etr": "2026-10-08T23:45:00Z", "start_time": "", "region": "", "municipality": "", "cluster": false, "source_url": "https://kubra.io/cluster-data/302/e0192d42-e3c7-4d12-9872-137fb6304921/8d7627d3-561b-4f52-99d9-ee61dcc34c7c/public/cluster-1/03023203.json", "quadkey": "03023203", "utility": "Hydro One", "province": "Ontario", "feed": "kubra_stormcentre_live", "data_source_notes": "Unofficial public Hydro One Storm Centre (Kubra) live snapshot; not operational outage history."}, "geometry": {"type": "Point", "coordinates": [-77.05384, 44.07684]}}, {"type": "Feature", "properties": {"outage_id": "7-0", "title": "Area Outage", "customers_affected": 19, "n_outages_in_cluster_record": 1, "cause": "Pending Classification", "status": "", "etr": "2026-10-09T00:15:00Z", "start_time": "", "region": "", "municipality": "", "cluster": false, "source_url": "https://kubra.io/cluster-data/123/e0192d42-e3c7-4d12-9872-137fb6304921/8d7627d3-561b-4f52-99d9-ee61dcc34c7c/public/cluster-1/0302321.json", "quadkey": "0302321", "utility": "Hydro One", "province": "Ontario", "feed": "kubra_stormcentre_live", "data_source_notes": "Unofficial public Hydro One Storm Centre (Kubra) live snapshot; not operational outage history."}, "geometry": {"type": "Point", "coordinates": [-75.76997, 44.62519]}}]}