{"type": "FeatureCollection", "features": [{"type": "Feature", "properties": {"outage_id": "7-0", "title": "Area Outage", "customers_affected": 19, "n_outages_in_cluster_record": 1, "cause": "Pending Classification", "status": "", "etr": "2026-10-09T04:30:00Z", "start_time": "", "region": "", "municipality": "", "cluster": false, "source_url": "https://kubra.io/cluster-data/212/e0192d42-e3c7-4d12-9872-137fb6304921/b1a97323-8099-452d-8511-93afbc653100/public/cluster-1/0302212.json", "quadkey": "0302212", "utility": "Hydro One", "province": "Ontario", "feed": "kubra_stormcentre_live", "data_source_notes": "Unofficial public Hydro One Storm Centre (Kubra) live snapshot; not operational outage history."}, "geometry": {"type": "Point", "coordinates": [-82.13024, 46.1276]}}, {"type": "Feature", "properties": {"outage_id": "7-0", "title": "Area Outage", "customers_affected": 19, "n_outages_in_cluster_record": 1, "cause": "Pending Classification", "status": "", "etr": "ETR-EXP", "start_time": "", "region": "", "municipality": "", "cluster": false, "source_url": "https://kubra.io/cluster-data/312/e0192d42-e3c7-4d12-9872-137fb6304921/b1a97323-8099-452d-8511-93afbc653100/public/cluster-1/0302213.json", "quadkey": "0302213", "utility": "Hydro One", "province": "Ontario", "feed": "kubra_stormcentre_live", "data_source_notes": "Unofficial public Hydro One Storm Centre (Kubra) live snapshot; not operational outage history."}, "geometry": {"type": "Point", "coordinates": [-79.26176, 45.22306]}}, {"type": "Feature", "properties": {"outage_id": "7-1", "title": "Area Outage", "customers_affected": 50, "n_outages_in_cluster_record": 1, "cause": "Pending Classification", "status": "", "etr": "ETR-EXP", "start_time": "", "region": "", "municipality": "", "cluster": false, "source_url": "https://kubra.io/cluster-data/312/e0192d42-e3c7-4d12-9872-137fb6304921/b1a97323-8099-452d-8511-93afbc653100/public/cluster-1/0302213.json", "quadkey": "0302213", "utility": "Hydro One", "province": "Ontario", "feed": "kubra_stormcentre_live", "data_source_notes": "Unofficial public Hydro One Storm Centre (Kubra) live snapshot; not operational outage history."}, "geometry": {"type": "Polygon", "coordinates": [[[-80.21997, 46.44628], [-80.22999, 46.46841], [-80.22765, 46.48325], [-80.22187, 46.4899], [-80.21996, 46.48841], [-80.21086, 46.4701], [-80.20781, 46.46361], [-80.21997, 46.44628]]]}}, {"type": "Feature", "properties": {"outage_id": "7-0", "title": "Area Outage", "customers_affected": 19, "n_outages_in_cluster_record": 1, "cause": "Currently Under Investigation", "status": "", "etr": "2026-10-10T22:00:00Z", "start_time": "", "region": "", "municipality": "", "cluster": false, "source_url": "https://kubra.io/cluster-data/132/e0192d42-e3c7-4d12-9872-137fb6304921/b1a97323-8099-452d-8511-93afbc653100/public/cluster-1/0302231.json", "quadkey": "0302231", "utility": "Hydro One", "province": "Ontario", "feed": "kubra_stormcentre_live", "data_source_notes": "Unofficial public Hydro One Storm Centre (Kubra) live snapshot; not operational outage history."}, "geometry": {"type": "Polygon", "coordinates": [[[-79.21591, 44.44331], [-79.2166, 44.45202], [-79.21474, 44.44764], [-79.21484, 44.44337], [-79.21591, 44.44331]]]}}, {"type": "Feature", "properties": {"outage_id": "7-1", "title": "Area Outage", "customers_affected": 19, "n_outages_in_cluster_record": 1, "cause": "Pending Classification", "status": "", "etr": "2026-10-09T05:30:00Z", "start_time": "", "region": "", "municipality": "", "cluster": false, "source_url": "https://kubra.io/cluster-data/132/e0192d42-e3c7-4d12-9872-137fb6304921/b1a97323-8099-452d-8511-93afbc653100/public/cluster-1/0302231.json", "quadkey": "0302231", "utility": "Hydro One", "province": "Ontario", "feed": "kubra_stormcentre_live", "data_source_notes": "Unofficial public Hydro One Storm Centre (Kubra) live snapshot; not operational outage history."}, "geometry": {"type": "Point", "coordinates": [-79.71478, 44.82383]}}, {"type": "Feature", "properties": {"outage_id": "7-2", "title": "Area Outage", "customers_affected": 19, "n_outages_in_cluster_record": 1, "cause": "Currently Under Investigation", "status": "", "etr": "ETR-EXP", "start_time": "", "region": "", "municipality": "", "cluster": false, "source_url": "https://kubra.io/cluster-data/132/e0192d42-e3c7-4d12-9872-137fb6304921/b1a97323-8099-452d-8511-93afbc653100/public/cluster-1/0302231.json", "quadkey": "0302231", "utility": "Hydro One", "province": "Ontario", "feed": "kubra_stormcentre_live", "data_source_notes": "Unofficial public Hydro One Storm Centre (Kubra) live snapshot; not operational outage history."}, "geometry": {"type": "Point", "coordinates": [-79.48562, 45.0032]}}, {"type": "Feature", "properties": {"outage_id": "7-3", "title": "Area Outage", "customers_affected": 19, "n_outages_in_cluster_record": 1, "cause": "Pending Classification", "status": "", "etr": "2026-10-09T02:30:00Z", "start_time": "", "region": "", "municipality": "", "cluster": false, "source_url": "https://kubra.io/cluster-data/132/e0192d42-e3c7-4d12-9872-137fb6304921/b1a97323-8099-452d-8511-93afbc653100/public/cluster-1/0302231.json", "quadkey": "0302231", "utility": "Hydro One", "province": "Ontario", "feed": "kubra_stormcentre_live", "data_source_notes": "Unofficial public Hydro One Storm Centre (Kubra) live snapshot; not operational outage history."}, "geometry": {"type": "Point", "coordinates": [-80.77591, 43.20055]}}, {"type": "Feature", "properties": {"outage_id": "7-4", "title": "Area Outage", "customers_affected": 19, "n_outages_in_cluster_record": 1, "cause": "Pending Classification", "status": "", "etr": "2026-10-09T03:00:00Z", "start_time": "", "region": "", "municipality": "", "cluster": false, "source_url": "https://kubra.io/cluster-data/132/e0192d42-e3c7-4d12-9872-137fb6304921/b1a97323-8099-452d-8511-93afbc653100/public/cluster-1/0302231.json", "quadkey": "0302231", "utility": "Hydro One", "province": "Ontario", "feed": "kubra_stormcentre_live", "data_source_notes": "Unofficial public Hydro One Storm Centre (Kubra) live snapshot; not operational outage history."}, "geometry": {"type": "Point", "coordinates": [-80.10108, 43.81083]}}, {"type": "Feature", "properties": {"outage_id": "7-0", "title": "Area Outage", "customers_affected": 131, "n_outages_in_cluster_record": 1, "cause": "Currently Under Investigation", "status": "", "etr": "2026-10-09T04:30:00Z", "start_time": "", "region": "", "municipality": "", "cluster": false, "source_url": "https://kubra.io/cluster-data/332/e0192d42-e3c7-4d12-9872-137fb6304921/b1a97323-8099-452d-8511-93afbc653100/public/cluster-1/0302233.json", "quadkey": "0302233", "utility": "Hydro One", "province": "Ontario", "feed": "kubra_stormcentre_live", "data_source_notes": "Unofficial public Hydro One Storm Centre (Kubra) live snapshot; not operational outage history."}, "geometry": {"type": "Polygon", "coordinates": [[[-81.47925, 42.76161], [-81.4956, 42.76614], [-81.52414, 42.78575], [-81.53665, 42.80489], [-81.50262, 42.80259], [-81.47749, 42.78726], [-81.47925, 42.76161]]]}}, {"type": "Feature", "properties": {"outage_id": "12-0", "title": "Area Outage", "customers_affected": 19, "n_outages_in_cluster_record": 1, "cause": "Pending Classification", "status": "", "etr": "ETR-EXP", "start_time": "", "region": "", "municipality": "", "cluster": false, "source_url": "https://kubra.io/cluster-data/222/e0192d42-e3c7-4d12-9872-137fb6304921/b1a97323-8099-452d-8511-93afbc653100/public/cluster-1/030230220222.json", "quadkey": "030230220222", "utility": "Hydro One", "province": "Ontario", "feed": "kubra_stormcentre_live", "data_source_notes": "Unofficial public Hydro One Storm Centre (Kubra) live snapshot; not operational outage history."}, "geometry": {"type": "Point", "coordinates": [-78.73184, 45.59627]}}, {"type": "Feature", "properties": {"outage_id": "12-1", "title": "Area Outage", "customers_affected": 19, "n_outages_in_cluster_record": 1, "cause": "Pending Classification", "status": "", "etr": "2026-10-09T18:00:00Z", "start_time": "", "region": "", "municipality": "", "cluster": false, "source_url": "https://kubra.io/cluster-data/222/e0192d42-e3c7-4d12-9872-137fb6304921/b1a97323-8099-452d-8511-93afbc653100/public/cluster-1/030230220222.json", "quadkey": "030230220222", "utility": "Hydro One", "province": "Ontario", "feed": "kubra_stormcentre_live", "data_source_notes": "Unofficial public Hydro One Storm Centre (Kubra) live snapshot; not operational outage history."}, "geometry": {"type": "Point", "coordinates": [-78.73184, 45.59627]}}, {"type": "Feature", "properties": {"outage_id": "8-0", "title": "Area Outage", "customers_affected": 19, "n_outages_in_cluster_record": 1, "cause": "Extreme Weather Conditions", "status": "", "etr": "2026-10-09T03:00:00Z", "start_time": "", "region": "", "municipality": "", "cluster": false, "source_url": "https://kubra.io/cluster-data/002/e0192d42-e3c7-4d12-9872-137fb6304921/b1a97323-8099-452d-8511-93afbc653100/public/cluster-1/03023200.json", "quadkey": "03023200", "utility": "Hydro One", "province": "Ontario", "feed": "kubra_stormcentre_live", "data_source_notes": "Unofficial public Hydro One Storm Centre (Kubra) live snapshot; not operational outage history."}, "geometry": {"type": "Point", "coordinates": [-78.24106, 44.16871]}}, {"type": "Feature", "properties": {"outage_id": "8-1", "title": "Area Outage", "customers_affected": 299, "n_outages_in_cluster_record": 1, "cause": "Pending Classification", "status": "", "etr": "ETR-EXP", "start_time": "", "region": "", "municipality": "", "cluster": false, "source_url": "https://kubra.io/cluster-data/002/e0192d42-e3c7-4d12-9872-137fb6304921/b1a97323-8099-452d-8511-93afbc653100/public/cluster-1/03023200.json", "quadkey": "03023200", "utility": "Hydro One", "province": "Ontario", "feed": "kubra_stormcentre_live", "data_source_notes": "Unofficial public Hydro One Storm Centre (Kubra) live snapshot; not operational outage history."}, "geometry": {"type": "Polygon", "coordinates": [[[-78.22641, 44.33572], [-78.24732, 44.33979], [-78.24919, 44.34054], [-78.27482, 44.35895], [-78.28196, 44.36748], [-78.28261, 44.37692], [-78.27098, 44.38099], [-78.17092, 44.3975], [-78.15164, 44.37802], [-78.17234, 44.35168], [-78.19056, 44.33744], [-78.22641, 44.33572]]]}}, {"type": "Feature", "properties": {"outage_id": "8-0", "title": "Area Outage", "customers_affected": 71, "n_outages_in_cluster_record": 1, "cause": "Pending Classification", "status": "", "etr": "ETR-EXP", "start_time": "", "region": "", "municipality": "", "cluster": false, "source_url": "https://kubra.io/cluster-data/102/e0192d42-e3c7-4d12-9872-137fb6304921/b1a97323-8099-452d-8511-93afbc653100/public/cluster-1/03023201.json", "quadkey": "03023201", "utility": "Hydro One", "province": "Ontario", "feed": "kubra_stormcentre_live", "data_source_notes": "Unofficial public Hydro One Storm Centre (Kubra) live snapshot; not operational outage history."}, "geometry": {"type": "Polygon", "coordinates": [[[-76.47207, 44.58178], [-76.4922, 44.58359], [-76.49352, 44.58577], [-76.48658, 44.58874], [-76.47606, 44.59023], [-76.47417, 44.59016], [-76.47057, 44.58576], [-76.46978, 44.5847], [-76.47083, 44.58273], [-76.47207, 44.58178]]]}}]}